STARLINK-31097          
1 58718U 24002P   26068.67853922 -.00001882  00000+0 -51471-4 0  9993
2 58718  53.1599 229.9809 0001183  87.2655 272.8481 15.30182949122018
KUIPER-00175            
1 67135U 25301C   26068.97960463  .00019968  00000+0  66732-3 0  9998
2 67135  51.8781  63.6978 0002279  50.5695 309.5490 15.30996371 13854
